{"type": "FeatureCollection", "features": [ {"type": "Feature", "properties": {"norad_id": 32343, "name": "FENGYUN 1C DEB", "group": "fengyun-1c-debris", "lat": -21.09254771234375, "lon": 149.91548324643333, "alt_km": 797.301582404084, "timestamp": "2025-12-12T11:38:31.698322+00:00", "meta": {"OBJECT_NAME": "FENGYUN 1C DEB", "OBJECT_ID": "1999-025CYL", "EPOCH": "2025-12-09T21:49:28.936416", "MEAN_MOTION": 14.19841902, "ECCENTRICITY": 0.0152059, "INCLINATION": 98.6084, "RA_OF_ASC_NODE": 330.7593, "ARG_OF_PERICENTER": 135.7996, "MEAN_ANOMALY": 225.5447, "EPHEMERIS_TYPE": 0, "CLASSIFICATION_TYPE": "U", "NORAD_CAT_ID": 32343, "ELEMENT_SET_NO": 999, "REV_AT_EPOCH": 64673, "BSTAR": 0.00039358, "MEAN_MOTION_DOT": 8.95e-06, "MEAN_MOTION_DDOT": 0}, "tle": {"line1": "1 32343U 99025CYL 25343.90936269  .00000895  00000+0  39358-3 0  9993", "line2": "2 32343  98.6084 330.7593 0152059 135.7996 225.5447 14.19841902646738"}}, "geometry": {"type": "Point", "coordinates": [149.91548324643333, -21.09254771234375]}}, {"type": "Feature", "properties": {"norad_id": 32350, "name": "FENGYUN 1C DEB", "group": "fengyun-1c-debris", "lat": 81.23477095227962, "lon": -38.58008973761683, "alt_km": 868.2217807401448, "timestamp": "2025-12-12T11:38:31.698333+00:00", "meta": {"OBJECT_NAME": "FENGYUN 1C DEB", "OBJECT_ID": "1999-025CYT", "EPOCH": "2025-12-10T21:12:53.915040", "MEAN_MOTION": 14.52544603, "ECCENTRICITY": 0.026697, "INCLINATION": 98.2292, "RA_OF_ASC_NODE": 29.663, "ARG_OF_PERICENTER": 304.3565, "MEAN_ANOMALY": 53.2635, "EPHEMERIS_TYPE": 0, "CLASSIFICATION_TYPE": "U", "NORAD_CAT_ID": 32350, "ELEMENT_SET_NO": 999, "REV_AT_EPOCH": 97500, "BSTAR": 0.0010688, "MEAN_MOTION_DOT": 6.938e-05, "MEAN_MOTION_DDOT": 0}, "tle": {"line1": "1 32350U 99025CYT 25344.88395735  .00006938  00000+0  10688-2 0  9994", "line2": "2 32350  98.2292  29.6630 0266970 304.3565  53.2635 14.52544603975008"}}, "geometry": {"type": "Point", "coordinates": [-38.58008973761683, 81.23477095227962]}}, {"type": "Feature", "properties": {"norad_id": 32352, "name": "FENGYUN 1C DEB", "group": "fengyun-1c-debris", "lat": -17.930470647630464, "lon": 83.61839140173824, "alt_km": 681.2613955174538, "timestamp": "2025-12-12T11:38:31.698343+00:00", "meta": {"OBJECT_NAME": "FENGYUN 1C DEB", "OBJECT_ID": "1999-025CYV", "EPOCH": "2025-12-03T13:28:47.441280", "MEAN_MOTION": 14.41397629, "ECCENTRICITY": 0.01208838, "INCLINATION": 98.7762, "RA_OF_ASC_NODE": 257.3194, "ARG_OF_PERICENTER": 198.3056, "MEAN_ANOMALY": 161.3763, "EPHEMERIS_TYPE": 0, "CLASSIFICATION_TYPE": "U", "NORAD_CAT_ID": 32352, "ELEMENT_SET_NO": 999, "REV_AT_EPOCH": 65137, "BSTAR": 0.00035669846, "MEAN_MOTION_DOT": 1.21e-05, "MEAN_MOTION_DDOT": 0}, "tle": {"line1": "1 32352U 99025CYV 25337.56166020  .00001210  00000+0  35670-3 0  9993", "line2": "2 32352  98.7762 257.3194 0120883 198.3056 161.3763 14.41397629651376"}}, "geometry": {"type": "Point", "coordinates": [83.61839140173824, -17.930470647630464]}}, {"type": "Feature", "properties": {"norad_id": 32353, "name": "FENGYUN 1C DEB", "group": "fengyun-1c-debris", "lat": 41.791122080809416, "lon": 154.89177880006898, "alt_km": 961.2494063884869, "timestamp": "2025-12-12T11:38:31.698353+00:00", "meta": {"OBJECT_NAME": "FENGYUN 1C DEB", "OBJECT_ID": "1999-025CYW", "EPOCH": "2025-12-09T06:27:26.911008", "MEAN_MOTION": 14.03762056, "ECCENTRICITY": 0.0125696, "INCLINATION": 98.922, "RA_OF_ASC_NODE": 159.8067, "ARG_OF_PERICENTER": 208.8783, "MEAN_ANOMALY": 150.5388, "EPHEMERIS_TYPE": 0, "CLASSIFICATION_TYPE": "U", "NORAD_CAT_ID": 32353, "ELEMENT_SET_NO": 999, "REV_AT_EPOCH": 63145, "BSTAR": 0.00432, "MEAN_MOTION_DOT": 7.257e-05, "MEAN_MOTION_DDOT": 0}, "tle": {"line1": "1 32353U 99025CYW 25343.26906147  .00007257  00000+0  43200-2 0  9994", "line2": "2 32353  98.9220 159.8067 0125696 208.8783 150.5388 14.03762056631452"}}, "geometry": {"type": "Point", "coordinates": [154.89177880006898, 41.791122080809416]}}, {"type": "Feature", "properties": {"norad_id": 32355, "name": "FENGYUN 1C DEB", "group": "fengyun-1c-debris", "lat": -79.5914670843923, "lon": 10.939662132185687, "alt_km": 484.9543716001999, "timestamp": "2025-12-12T11:38:31.698363+00:00", "meta": {"OBJECT_NAME": "FENGYUN 1C DEB", "OBJECT_ID": "1999-025CYY", "EPOCH": "2025-11-30T13:45:12.852288", "MEAN_MOTION": 15.2698689, "ECCENTRICITY": 0.00340494, "INCLINATION": 100.3462, "RA_OF_ASC_NODE": 258.4114, "ARG_OF_PERICENTER": 91.868, "MEAN_ANOMALY": 83.2659, "EPHEMERIS_TYPE": 0, "CLASSIFICATION_TYPE": "U", "NORAD_CAT_ID": 32355, "ELEMENT_SET_NO": 999, "REV_AT_EPOCH": 64804, "BSTAR": 0.0114101, "MEAN_MOTION_DOT": 0.00320062, "MEAN_MOTION_DDOT": 0}, "tle": {"line1": "1 32355U 99025CYY 25334.57306542  .00320062  00000+0  11410-1 0  9992", "line2": "2 32355 100.3462 258.4114 0034049  91.8680  83.2659 15.26986890648042"}}, "geometry": {"type": "Point", "coordinates": [10.939662132185687, -79.5914670843923]}}, {"type": "Feature", "properties": {"norad_id": 32356, "name": "FENGYUN 1C DEB", "group": "fengyun-1c-debris", "lat": -53.695853428077335, "lon": 11.061687152329963, "alt_km": 958.7858952517108, "timestamp": "2025-12-12T11:38:31.698373+00:00", "meta": {"OBJECT_NAME": "FENGYUN 1C DEB", "OBJECT_ID": "1999-025CYZ", "EPOCH": "2025-12-12T01:57:56.966112", "MEAN_MOTION": 14.03374598, "ECCENTRICITY": 0.0125271, "INCLINATION": 102.4955, "RA_OF_ASC_NODE": 208.0776, "ARG_OF_PERICENTER": 17.1725, "MEAN_ANOMALY": 343.361, "EPHEMERIS_TYPE": 0, "CLASSIFICATION_TYPE": "U", "NORAD_CAT_ID": 32356, "ELEMENT_SET_NO": 999, "REV_AT_EPOCH": 68378, "BSTAR": 0.0032852, "MEAN_MOTION_DOT": 5.437e-05, "MEAN_MOTION_DDOT": 0}, "tle": {"line1": "1 32356U 99025CYZ 25346.08190933  .00005437  00000+0  32852-2 0  9997", "line2": "2 32356 102.4955 208.0776 0125271  17.1725 343.3610 14.03374598683784"}}, "geometry": {"type": "Point", "coordinates": [11.061687152329963, -53.695853428077335]}}, {"type": "Feature", "properties": {"norad_id": 32357, "name": "FENGYUN 1C DEB", "group": "fengyun-1c-debris", "lat": 79.00307884957508, "lon": -100.79658085060665, "alt_km": 989.832987114226, "timestamp": "2025-12-12T11:38:31.698383+00:00", "meta": {"OBJECT_NAME": "FENGYUN 1C DEB", "OBJECT_ID": "1999-025CZA", "EPOCH": "2025-12-10T21:24:56.060928", "MEAN_MOTION": 13.68648382, "ECCENTRICITY": 0.0490892, "INCLINATION": 98.8572, "RA_OF_ASC_NODE": 24.3741, "ARG_OF_PERICENTER": 192.425, "MEAN_ANOMALY": 346.0356, "EPHEMERIS_TYPE": 0, "CLASSIFICATION_TYPE": "U", "NORAD_CAT_ID": 32357, "ELEMENT_SET_NO": 999, "REV_AT_EPOCH": 66762, "BSTAR": 0.0050246, "MEAN_MOTION_DOT": 0.00010057, "MEAN_MOTION_DDOT": 0}, "tle": {"line1": "1 32357U 99025CZA 25344.89231552  .00010057  00000+0  50246-2 0  9999", "line2": "2 32357  98.8572  24.3741 0490892 192.4250 346.0356 13.68648382667620"}}, "geometry": {"type": "Point", "coordinates": [-100.79658085060665, 79.00307884957508]}}, {"type": "Feature", "properties": {"norad_id": 32361, "name": "FENGYUN 1C DEB", "group": "fengyun-1c-debris", "lat": -60.12227991727627, "lon": 61.163637161153126, "alt_km": 738.5494232991832, "timestamp": "2025-12-12T11:38:31.698393+00:00", "meta": {"OBJECT_NAME": "FENGYUN 1C DEB", "OBJECT_ID": "1999-025CZE", "EPOCH": "2025-12-11T02:49:28.485984", "MEAN_MOTION": 14.51000416, "ECCENTRICITY": 0.004611, "INCLINATION": 98.861, "RA_OF_ASC_NODE": 43.9683, "ARG_OF_PERICENTER": 49.333, "MEAN_ANOMALY": 311.1857, "EPHEMERIS_TYPE": 0, "CLASSIFICATION_TYPE": "U", "NORAD_CAT_ID": 32361, "ELEMENT_SET_NO": 999, "REV_AT_EPOCH": 96321, "BSTAR": 0.002935715, "MEAN_MOTION_DOT": 0.0001174, "MEAN_MOTION_DDOT": 0}, "tle": {"line1": "1 32361U 99025CZE 25345.11769081  .00011740  00000+0  29357-2 0  9992", "line2": "2 32361  98.8610  43.9683 0046110  49.3330 311.1857 14.51000416963215"}}, "geometry": {"type": "Point", "coordinates": [61.163637161153126, -60.12227991727627]}}, {"type": "Feature", "properties": {"norad_id": 32362, "name": "FENGYUN 1C DEB", "group": "fengyun-1c-debris", "lat": 33.529186487678174, "lon": -48.94905885468807, "alt_km": 1073.498864429289, "timestamp": "2025-12-12T11:38:31.698403+00:00", "meta": {"OBJECT_NAME": "FENGYUN 1C DEB", "OBJECT_ID": "1999-025CZF", "EPOCH": "2025-12-07T15:23:15.342720", "MEAN_MOTION": 13.65140835, "ECCENTRICITY": 0.02754875, "INCLINATION": 99.8447, "RA_OF_ASC_NODE": 312.7403, "ARG_OF_PERICENTER": 298.1645, "MEAN_ANOMALY": 59.1918, "EPHEMERIS_TYPE": 0, "CLASSIFICATION_TYPE": "U", "NORAD_CAT_ID": 32362, "ELEMENT_SET_NO": 999, "REV_AT_EPOCH": 91060, "BSTAR": 0.0060602721, "MEAN_MOTION_DOT": 6.323e-05, "MEAN_MOTION_DDOT": 0}, "tle": {"line1": "1 32362U 99025CZF 25341.64114980  .00006323  00000+0  60603-2 0  9999", "line2": "2 32362  99.8447 312.7403 0275487 298.1645  59.1918 13.65140835910602"}}, "geometry": {"type": "Point", "coordinates": [-48.94905885468807, 33.529186487678174]}}, {"type": "Feature", "properties": {"norad_id": 32363, "name": "FENGYUN 1C DEB", "group": "fengyun-1c-debris", "lat": -40.49173419204358, "lon": -48.38993085088668, "alt_km": 473.76655754607236, "timestamp": "2025-12-12T11:38:31.698413+00:00", "meta": {"OBJECT_NAME": "FENGYUN 1C DEB", "OBJECT_ID": "1999-025CZG", "EPOCH": "2025-12-12T02:30:36.708192", "MEAN_MOTION": 15.47516603, "ECCENTRICITY": 0.0064011, "INCLINATION": 98.3304, "RA_OF_ASC_NODE": 303.985, "ARG_OF_PERICENTER": 143.1405, "MEAN_ANOMALY": 217.4268, "EPHEMERIS_TYPE": 0, "CLASSIFICATION_TYPE": "U", "NORAD_CAT_ID": 32363, "ELEMENT_SET_NO": 999, "REV_AT_EPOCH": 96798, "BSTAR": 0.0021212, "MEAN_MOTION_DOT": 0.00119606, "MEAN_MOTION_DDOT": 0}, "tle": {"line1": "1 32363U 99025CZG 25346.10459153  .00119606  00000+0  21212-2 0  9992", "line2": "2 32363  98.3304 303.9850 0064011 143.1405 217.4268 15.47516603967981"}}, "geometry": {"type": "Point", "coordinates": [-48.38993085088668, -40.49173419204358]}}]}